SPACEBEENZ-8            
1 48891U 21059N   23032.09352077  .00035291  00000+0  12861-2 0  9999
2 48891  97.5730 168.3007 0007585  16.9703 343.1789 15.28074907 88722
TYVAK-0173              
1 48892U 21059P   23031.81728797  .00000908  00000+0  14297-3 0  9998
2 48892  95.9835  45.8563 0009454 217.0785 142.9776 14.73900362 86224
SPACEBEE-106            
1 48893U 21059Q   23032.60875271  .00017054  00000+0  75090-3 0  9995
2 48893  97.5780 167.4606 0008536  28.6860 331.4844 15.21878435 88706
SPACEBEE-107            
1 48894U 21059R   23032.37131787  .00020399  00000+0  87491-3 0  9991
2 48894  97.5789 167.4816 0008422  26.7798 333.3871 15.22736885 88683
SPACEBEE-108            
1 48895U 21059S   23032.34262628  .00018008  00000+0  79206-3 0  9997
2 48895  97.5780 167.1716 0008677  28.3609 331.8097 15.21901986 88668
SPACEBEE-105            
1 48896U 21059T   23032.30968003  .00019597  00000+0  85372-3 0  9999
2 48896  97.5767 166.9137 0008395  19.5300 340.6256 15.22213669 88654
SPACEBEE-109            
1 48897U 21059U   23032.33849096  .00019481  00000+0  84166-3 0  9995
2 48897  97.5783 167.3341 0008566  26.0599 334.1067 15.22496198 88678
CENTAURI-4 (TYVAK-0211) 
1 48898U 21059V   23032.36717341  .00021261  00000+0  90917-3 0  9996
2 48898  97.5727 167.2947 0008738  30.6216 329.5528 15.22826227 88687
SPACEBEE-110            
1 48899U 21059W   23032.31245834  .00020429  00000+0  87586-3 0  9998
2 48899  97.5784 167.5611 0008849  24.3802 335.7851 15.22745879 88687
TUBIN                   
1 48900U 21059X   23033.12420433  .00007007  00000+0  36409-3 0  9996
2 48900  97.5780 166.3370 0010302  35.3941 137.5618 15.16358614 88687
TROPICS PATHFINDER      
1 48901U 21059Y   23032.61048673  .00012511  00000+0  58761-3 0  9993
2 48901  97.5664 166.2050 0009691  31.2252 328.9557 15.19720407 88675
SPACEBEE-111            
1 48904U 21059AB  23033.10765508  .00019498  00000+0  81960-3 0  9992
2 48904  97.5797 168.7062 0009546  20.9907 339.1719 15.23418844 88821
NUSAT-19 (ROSALIND)     
1 48905U 21059AC  23033.17085941  .00011394  00000+0  48316-3 0  9991
2 48905  97.5316 167.5597 0009526 356.4740 127.5602 15.23249316 88982
UMBRA-2001              
1 48906U 21059AD  23032.31871271  .00034190  00000+0  16531-2 0  9998
2 48906  97.5579 162.9132 0005682 286.6833  73.3777 15.18516791 88444
MANDRAKE 2 ABLE         
1 48907U 21059AE  23032.33970410  .00004687  00000+0  24965-3 0  9995
2 48907  97.5778 165.6029 0011478  37.3548 322.8480 15.15654006 88571
MANDRAKE 2 BAKER        
1 48908U 21059AF  23032.60729452  .00004485  00000+0  23825-3 0  9994
2 48908  97.5796 165.8942 0010429  31.6703 328.5155 15.15778929 88611
PACE-1                  
1 48909U 21059AG  23033.10383635  .00005783  00000+0  30305-3 0  9993
2 48909  97.5709 165.8359 0011005  27.2200 332.9607 15.16133597 88698
GNOMES-2                
1 48910U 21059AH  23032.36851498  .00018222  00000+0  80234-3 0  9997
2 48910  97.5764 167.3427 0010077  24.3876 335.7835 15.21850716 88687
YAM-2                   
1 48911U 21059AJ  23032.31631659  .00008089  00000+0  40549-3 0  9993
2 48911  97.5803 166.2808 0011254  29.8641 330.3233 15.17563239 88602
ION SCV-003             
1 48912U 21059AK  23033.10640598  .00009921  00000+0  45085-3 0  9990
2 48912  97.5515 166.3760 0012107  33.4470 326.7528 15.20899151 88740
CAPELLA-5-WHITNEY       
1 48913U 21059AL  23032.38863338  .00312474  00000+0  35977-2 0  9997
2 48913  97.5476 173.2618 0012636 313.3599  46.6604 15.60871968 89121
ICEYE-X12               
1 48914U 21059AM  23033.17319536  .00011465  00000+0  65143-3 0  9997
2 48914  97.5758 164.2013 0000802 347.4231 135.4183 15.13065898 88546
YAM-3                   
1 48915U 21059AN  23032.35079629  .00004827  00000+0  25480-3 0  9997
2 48915  97.5767 165.6273 0011701  27.1674 333.0168 15.15955274 88584
ICEYE-X13               
1 48916U 21059AP  23033.18672633  .00011111  00000+0  62186-3 0  9992
2 48916  97.5768 164.5435 0001235  28.3117  92.9274 15.13614439 88560
ICEYE-X15               
1 48917U 21059AQ  23033.14597336  .00013157  00000+0  61122-3 0  9996
2 48917  97.5754 167.9113 0011138  16.7479 156.2629 15.20075582 88781
ICEYE-X11               
1 48918U 21059AR  23033.16171816  .00012414  00000+0  58607-3 0  9999
2 48918  97.5755 167.6864 0011568  19.6381 153.8265 15.19527049 88770
NUSAT-22 (SOFYA)        
1 48919U 21059AS  23033.15316571  .00023759  00000+0  61581-3 0  9997
2 48919  97.3771 169.9607 0012242 296.9089 236.4431 15.38948649 89781
NUSAT-21 (ELISA)        
1 48920U 21059AT  23033.15302060  .00028648  00000+0  63924-3 0  9992
2 48920  97.3712 170.3220 0011512 301.4731 231.6001 15.43451702 89853
NUSAT-20 (GRACE)        
1 48921U 21059AU  23033.11939094  .00026182  00000+0  62251-3 0  9995
2 48921  97.3843 170.6184 0013831 321.8438 141.6114 15.41535062 89818
D2/ATLACOM-1            
1 48922U 21059AV  23033.14868025  .00015815  00000+0  71790-3 0  9993
2 48922  97.5680 167.4752 0011468  11.7308 161.3054 15.20824777 88799
