OBJECT_NAME,OBJECT_ID,EPOCH,MEAN_MOTION,ECCENTRICITY,INCLINATION,RA_OF_ASC_NODE,ARG_OF_PERICENTER,MEAN_ANOMALY,EPHEMERIS_TYPE,CLASSIFICATION_TYPE,NORAD_CAT_ID,ELEMENT_SET_NO,REV_AT_EPOCH,BSTAR,MEAN_MOTION_DOT,MEAN_MOTION_DDOT
SPACEBEENZ-8,2021-059N,2023-02-01T02:14:40.194528,15.28074907,.0007585,97.5730,168.3007,16.9703,343.1789,0,U,48891,999,8872,.12861E-2,.35291E-3,0
TYVAK-0173,2021-059P,2023-01-31T19:36:53.680608,14.73900362,.0009454,95.9835,45.8563,217.0785,142.9776,0,U,48892,999,8622,.14297E-3,.908E-5,0
SPACEBEE-106,2021-059Q,2023-02-01T14:36:36.234144,15.21878435,.0008536,97.5780,167.4606,28.6860,331.4844,0,U,48893,999,8870,.7509E-3,.17054E-3,0
SPACEBEE-107,2021-059R,2023-02-01T08:54:41.863968,15.22736885,.0008422,97.5789,167.4816,26.7798,333.3871,0,U,48894,999,8868,.87491E-3,.20399E-3,0
SPACEBEE-108,2021-059S,2023-02-01T08:13:22.910592,15.21901986,.0008677,97.5780,167.1716,28.3609,331.8097,0,U,48895,999,8866,.79206E-3,.18008E-3,0
SPACEBEE-105,2021-059T,2023-02-01T07:25:56.354592,15.22213669,.0008395,97.5767,166.9137,19.5300,340.6256,0,U,48896,999,8865,.85372E-3,.19597E-3,0
SPACEBEE-109,2021-059U,2023-02-01T08:07:25.618944,15.22496198,.0008566,97.5783,167.3341,26.0599,334.1067,0,U,48897,999,8867,.84166E-3,.19481E-3,0
CENTAURI-4 (TYVAK-0211),2021-059V,2023-02-01T08:48:43.782624,15.22826227,.0008738,97.5727,167.2947,30.6216,329.5528,0,U,48898,999,8868,.90917E-3,.21261E-3,0
SPACEBEE-110,2021-059W,2023-02-01T07:29:56.400576,15.22745879,.0008849,97.5784,167.5611,24.3802,335.7851,0,U,48899,999,8868,.87586E-3,.20429E-3,0
TUBIN,2021-059X,2023-02-02T02:58:51.254112,15.16358614,.0010302,97.5780,166.3370,35.3941,137.5618,0,U,48900,999,8868,.36409E-3,.7007E-4,0
TROPICS PATHFINDER,2021-059Y,2023-02-01T14:39:06.053472,15.19720407,.0009691,97.5664,166.2050,31.2252,328.9557,0,U,48901,999,8867,.58761E-3,.12511E-3,0
SPACEBEE-111,2021-059AB,2023-02-02T02:35:01.398912,15.23418844,.0009546,97.5797,168.7062,20.9907,339.1719,0,U,48904,999,8882,.8196E-3,.19498E-3,0
NUSAT-19 (ROSALIND),2021-059AC,2023-02-02T04:06:02.253024,15.23249316,.0009526,97.5316,167.5597,356.4740,127.5602,0,U,48905,999,8898,.48316E-3,.11394E-3,0
UMBRA-2001,2021-059AD,2023-02-01T07:38:56.778144,15.18516791,.0005682,97.5579,162.9132,286.6833,73.3777,0,U,48906,999,8844,.16531E-2,.3419E-3,0
MANDRAKE 2 ABLE,2021-059AE,2023-02-01T08:09:10.434240,15.15654006,.0011478,97.5778,165.6029,37.3548,322.8480,0,U,48907,999,8857,.24965E-3,.4687E-4,0
MANDRAKE 2 BAKER,2021-059AF,2023-02-01T14:34:30.246528,15.15778929,.0010429,97.5796,165.8942,31.6703,328.5155,0,U,48908,999,8861,.23825E-3,.4485E-4,0
PACE-1,2021-059AG,2023-02-02T02:29:31.460640,15.16133597,.0011005,97.5709,165.8359,27.2200,332.9607,0,U,48909,999,8869,.30305E-3,.5783E-4,0
GNOMES-2,2021-059AH,2023-02-01T08:50:39.694272,15.21850716,.0010077,97.5764,167.3427,24.3876,335.7835,0,U,48910,999,8868,.80234E-3,.18222E-3,0
YAM-2,2021-059AJ,2023-02-01T07:35:29.753376,15.17563239,.0011254,97.5803,166.2808,29.8641,330.3233,0,U,48911,999,8860,.40549E-3,.8089E-4,0
ION SCV-003,2021-059AK,2023-02-02T02:33:13.476672,15.20899151,.0012107,97.5515,166.3760,33.4470,326.7528,0,U,48912,999,8874,.45085E-3,.9921E-4,0
CAPELLA-5-WHITNEY,2021-059AL,2023-02-01T09:19:37.924032,15.60871968,.0012636,97.5476,173.2618,313.3599,46.6604,0,U,48913,999,8912,.35977E-2,.312474E-2,0
ICEYE-X12,2021-059AM,2023-02-02T04:09:24.079104,15.13065898,.0000802,97.5758,164.2013,347.4231,135.4183,0,U,48914,999,8854,.65143E-3,.11465E-3,0
YAM-3,2021-059AN,2023-02-01T08:25:08.799456,15.15955274,.0011701,97.5767,165.6273,27.1674,333.0168,0,U,48915,999,8858,.2548E-3,.4827E-4,0
ICEYE-X13,2021-059AP,2023-02-02T04:28:53.154912,15.13614439,.0001235,97.5768,164.5435,28.3117,92.9274,0,U,48916,999,8856,.62186E-3,.11111E-3,0
ICEYE-X15,2021-059AQ,2023-02-02T03:30:12.098304,15.20075582,.0011138,97.5754,167.9113,16.7479,156.2629,0,U,48917,999,8878,.61122E-3,.13157E-3,0
ICEYE-X11,2021-059AR,2023-02-02T03:52:52.449024,15.19527049,.0011568,97.5755,167.6864,19.6381,153.8265,0,U,48918,999,8877,.58607E-3,.12414E-3,0
NUSAT-22 (SOFYA),2021-059AS,2023-02-02T03:40:33.517344,15.38948649,.0012242,97.3771,169.9607,296.9089,236.4431,0,U,48919,999,8978,.61581E-3,.23759E-3,0
NUSAT-21 (ELISA),2021-059AT,2023-02-02T03:40:20.979840,15.43451702,.0011512,97.3712,170.3220,301.4731,231.6001,0,U,48920,999,8985,.63924E-3,.28648E-3,0
NUSAT-20 (GRACE),2021-059AU,2023-02-02T02:51:55.377216,15.41535062,.0013831,97.3843,170.6184,321.8438,141.6114,0,U,48921,999,8981,.62251E-3,.26182E-3,0
D2/ATLACOM-1,2021-059AV,2023-02-02T03:34:05.973600,15.20824777,.0011468,97.5680,167.4752,11.7308,161.3054,0,U,48922,999,8879,.7179E-3,.15815E-3,0
